HIMAWARI-8              
1 40267U 14060A   24159.60808596 -.00000276  00000+0  00000+0 0  9997
2 40267   0.0674 130.4775 0000686 318.4848 167.1065  1.00271474 35348
